start=new Date('2022-08-04T00:00:00.000Z').valueOf();
sats=[{"ARG_OF_PERICENTER":"55.2790","LAUNCH_DATE":"2021-02-04","EPOCH":"2022-08-03T04:57:11.808288","ECCENTRICITY":"0.00022270","EPHEMERIS_TYPE":"0","INCLINATION":"53.0545","MEAN_MOTION_DOT":"0.00000668","REF_FRAME":"TEME","REV_AT_EPOCH":"8341","RA_OF_ASC_NODE":"152.5751","DECAY_DATE":null,"BSTAR":"0.00006379600000","MEAN_MOTION_DDOT":"0.0000000000000","MEAN_ANOMALY":"304.8409","COUNTRY_CODE":"US","PERIOD":"95.593","SEMIMAJOR_AXIS":"6925.370","MEAN_ELEMENT_THEORY":"SGP4","NORAD_CAT_ID":"47587","SITE":"AFETR","TIME_SYSTEM":"UTC","APOAPSIS":"548.778","MEAN_MOTION":"15.06392878","OBJECT_ID":"2021-009AR","FILE":"3527980","ELEMENT_SET_NO":"999","GP_ID":"209463533","TLE_LINE1":"1 47587U 21009AR  22215.20638667  .00000668  00000-0  63796-4 0  9998","CLASSIFICATION_TYPE":"U","OBJECT_TYPE":"PAYLOAD","CENTER_NAME":"EARTH","PERIAPSIS":"545.693","TLE_LINE2":"2 47587  53.0545 152.5751 0002227  55.2790 304.8409 15.06392878 83415","OBJECT_NAME":"STARLINK-1991","RCS_SIZE":"LARGE"},{"COUNTRY_CODE":"US","MEAN_ANOMALY":"287.2546","DECAY_DATE":null,"BSTAR":"-0.00001200300000","MEAN_MOTION_DDOT":"0.0000000000000","RA_OF_ASC_NODE":"159.6137","REV_AT_EPOCH":"8338","MEAN_MOTION_DOT":"-0.00000460","REF_FRAME":"TEME","INCLINATION":"53.0544","EPHEMERIS_TYPE":"0","ECCENTRICITY":"0.00017440","EPOCH":"2022-08-03T20:40:39.046656","LAUNCH_DATE":"2021-02-04","ARG_OF_PERICENTER":"72.8634","RCS_SIZE":"LARGE","OBJECT_NAME":"STARLINK-1993","CENTER_NAME":"EARTH","PERIAPSIS":"546.023","TLE_LINE2":"2 47588  53.0544 159.6137 0001744  72.8634 287.2546 15.06394484 83383","OBJECT_TYPE":"PAYLOAD","TLE_LINE1":"1 47588U 21009AS  22215.86156304 -.00000460  00000-0 -12003-4 0  9991","CLASSIFICATION_TYPE":"U","GP_ID":"209500109","FILE":"3528522","ELEMENT_SET_NO":"999","OBJECT_ID":"2021-009AS","APOAPSIS":"548.438","MEAN_MOTION":"15.06394484","TIME_SYSTEM":"UTC","NORAD_CAT_ID":"47588","SITE":"AFETR","MEAN_ELEMENT_THEORY":"SGP4","SEMIMAJOR_AXIS":"6925.365","PERIOD":"95.592"},{"MEAN_MOTION_DOT":"-0.00000353","REF_FRAME":"TEME","EPHEMERIS_TYPE":"0","INCLINATION":"53.0543","ECCENTRICITY":"0.00020250","EPOCH":"2022-08-03T06:47:20.234112","LAUNCH_DATE":"2021-02-04","ARG_OF_PERICENTER":"71.1677","COUNTRY_CODE":"US","MEAN_ANOMALY":"288.9531","DECAY_DATE":null,"BSTAR":"-0.00000478240000","MEAN_MOTION_DDOT":"0.0000000000000","RA_OF_ASC_NODE":"162.2268","REV_AT_EPOCH":"8268","OBJECT_ID":"2021-009AT","FILE":"3528364","ELEMENT_SET_NO":"999","MEAN_MOTION":"15.06389206","APOAPSIS":"548.649","TIME_SYSTEM":"UTC","NORAD_CAT_ID":"47589","SITE":"AFETR","MEAN_ELEMENT_THEORY":"SGP4","SEMIMAJOR_AXIS":"6925.382","PERIOD":"95.593","RCS_SIZE":"LARGE","OBJECT_NAME":"STARLINK-1994","CENTER_NAME":"EARTH","PERIAPSIS":"545.844","TLE_LINE2":"2 47589  53.0543 162.2268 0002025  71.1677 288.9531 15.06389206 82680","OBJECT_TYPE":"PAYLOAD","TLE_LINE1":"1 47589U 21009AT  22215.28287308 -.00000353  00000-0 -47824-5 0  9998","CLASSIFICATION_TYPE":"U","GP_ID":"209493186"},{"TLE_LINE2":"2 47590  53.0526 180.1884 0002243  59.3538 300.7672 15.06381088 83075","PERIAPSIS":"545.718","CENTER_NAME":"EARTH","OBJECT_NAME":"STARLINK-1995","RCS_SIZE":"LARGE","GP_ID":"209500112","CLASSIFICATION_TYPE":"U","TLE_LINE1":"1 47590U 21009AU  22215.73810311 -.00001852  00000-0 -10552-3 0  9997","OBJECT_TYPE":"PAYLOAD","MEAN_ELEMENT_THEORY":"SGP4","NORAD_CAT_ID":"47590","SITE":"AFETR","TIME_SYSTEM":"UTC","APOAPSIS":"548.825","MEAN_MOTION":"15.06381088","FILE":"3528522","ELEMENT_SET_NO":"999","OBJECT_ID":"2021-009AU","PERIOD":"95.593","SEMIMAJOR_AXIS":"6925.407","MEAN_ANOMALY":"300.7672","COUNTRY_CODE":"US","RA_OF_ASC_NODE":"180.1884","REV_AT_EPOCH":"8307","MEAN_MOTION_DDOT":"0.0000000000000","BSTAR":"-0.00010552000000","DECAY_DATE":null,"ECCENTRICITY":"0.00022430","EPHEMERIS_TYPE":"0","INCLINATION":"53.0526","REF_FRAME":"TEME","MEAN_MOTION_DOT":"-0.00001852","ARG_OF_PERICENTER":"59.3538","LAUNCH_DATE":"2021-02-04","EPOCH":"2022-08-03T17:42:52.108704"},{"MEAN_MOTION_DDOT":"0.0000000000000","BSTAR":"0.00001878700000","DECAY_DATE":null,"REV_AT_EPOCH":"8336","RA_OF_ASC_NODE":"159.8651","MEAN_ANOMALY":"303.8774","COUNTRY_CODE":"US","LAUNCH_DATE":"2021-02-04","EPOCH":"2022-08-03T19:26:20.549184","ARG_OF_PERICENTER":"56.2404","EPHEMERIS_TYPE":"0","INCLINATION":"53.0534","REF_FRAME":"TEME","MEAN_MOTION_DOT":"-0.00000002","ECCENTRICITY":"0.00019850","CLASSIFICATION_TYPE":"U","TLE_LINE1":"1 47591U 21009AV  22215.80996006 -.00000002  00000-0  18787-4 0  9996","OBJECT_TYPE":"PAYLOAD","GP_ID":"209500459","RCS_SIZE":"LARGE","TLE_LINE2":"2 47591  53.0534 159.8651 0001985  56.2404 303.8774 15.06391467 83361","CENTER_NAME":"EARTH","PERIAPSIS":"545.865","OBJECT_NAME":"STARLINK-1996","SEMIMAJOR_AXIS":"6925.375","PERIOD":"95.593","TIME_SYSTEM":"UTC","APOAPSIS":"548.614","MEAN_MOTION":"15.06391467","FILE":"3528522","ELEMENT_SET_NO":"999","OBJECT_ID":"2021-009AV","MEAN_ELEMENT_THEORY":"SGP4","SITE":"AFETR","NORAD_CAT_ID":"47591"},{"DECAY_DATE":null,"BSTAR":"0.00000010695000","MEAN_MOTION_DDOT":"0.0000000000000","RA_OF_ASC_NODE":"182.7025","REV_AT_EPOCH":"8238","MEAN_ANOMALY":"297.8964","COUNTRY_CODE":"US","LAUNCH_DATE":"2021-02-04","EPOCH":"2022-08-03T04:16:03.604800","ARG_OF_PERICENTER":"62.2194","INCLINATION":"53.0545","EPHEMERIS_TYPE":"0","MEAN_MOTION_DOT":"-0.00000280","REF_FRAME":"TEME","ECCENTRICITY":"0.00016680","TLE_LINE1":"1 47592U 21009AW  22215.17781950 -.00000280  00000-0  10695-6 0  9997","CLASSIFICATION_TYPE":"U","OBJECT_TYPE":"PAYLOAD","GP_ID":"209492436","RCS_SIZE":"LARGE","PERIAPSIS":"546.058","CENTER_NAME":"EARTH","TLE_LINE2":"2 47592  53.0545 182.7025 0001668  62.2194 297.8964 15.06399984 82381","OBJECT_NAME":"STARLINK-1997","PERIOD":"95.592","SEMIMAJOR_AXIS":"6925.349","APOAPSIS":"548.369","TIME_SYSTEM":"UTC","MEAN_MOTION":"15.06399984","ELEMENT_SET_NO":"999","FILE":"3528364","OBJECT_ID":"2021-009AW","MEAN_ELEMENT_THEORY":"SGP4","SITE":"AFETR","NORAD_CAT_ID":"47592"},{"ARG_OF_PERICENTER":"61.3672","EPOCH":"2022-08-03T14:42:22.669632","LAUNCH_DATE":"2021-02-04","ECCENTRICITY":"0.00020140","MEAN_MOTION_DOT":"-0.00000439","REF_FRAME":"TEME","EPHEMERIS_TYPE":"0","INCLINATION":"53.0539","RA_OF_ASC_NODE":"180.7302","REV_AT_EPOCH":"8305","BSTAR":"-0.00001057900000","DECAY_DATE":null,"MEAN_MOTION_DDOT":"0.0000000000000","COUNTRY_CODE":"US","MEAN_ANOMALY":"298.7519","PERIOD":"95.592","SEMIMAJOR_AXIS":"6925.353","NORAD_CAT_ID":"47593","SITE":"AFETR","MEAN_ELEMENT_THEORY":"SGP4","ELEMENT_SET_NO":"999","FILE":"3528522","OBJECT_ID":"2021-009AX","APOAPSIS":"548.613","MEAN_MOTION":"15.06398580","TIME_SYSTEM":"UTC","GP_ID":"209500455","OBJECT_TYPE":"PAYLOAD","TLE_LINE1":"1 47593U 21009AX  22215.61276238 -.00000439  00000-0 -10579-4 0  9991","CLASSIFICATION_TYPE":"U","OBJECT_NAME":"STARLINK-1998","CENTER_NAME":"EARTH","PERIAPSIS":"545.823","TLE_LINE2":"2 47593  53.0539 180.7302 0002014  61.3672 298.7519 15.06398580 83050","RCS_SIZE":"LARGE"},{"GP_ID":"209493938","OBJECT_TYPE":"PAYLOAD","TLE_LINE1":"1 47594U 21009AY  22215.31419629  .00000568  00000-0  57066-4 0  9995","CLASSIFICATION_TYPE":"U","OBJECT_NAME":"STARLINK-1999","PERIAPSIS":"545.979","CENTER_NAME":"EARTH","TLE_LINE2":"2 47594  53.0526 182.0869 0001783  67.2089 292.9088 15.06399967 82404","RCS_SIZE":"LARGE","SEMIMAJOR_AXIS":"6925.349","PERIOD":"95.592","SITE":"AFETR","NORAD_CAT_ID":"47594","MEAN_ELEMENT_THEORY":"SGP4","OBJECT_ID":"2021-009AY","FILE":"3528364","ELEMENT_SET_NO":"999","APOAPSIS":"548.448","MEAN_MOTION":"15.06399967","TIME_SYSTEM":"UTC","RA_OF_ASC_NODE":"182.0869","REV_AT_EPOCH":"8240","DECAY_DATE":null,"BSTAR":"0.00005706600000","MEAN_MOTION_DDOT":"0.0000000000000","COUNTRY_CODE":"US","MEAN_ANOMALY":"292.9088","ARG_OF_PERICENTER":"67.2089","EPOCH":"2022-08-03T07:32:26.559456","LAUNCH_DATE":"2021-02-04","ECCENTRICITY":"0.00017830","MEAN_MOTION_DOT":"0.00000568","REF_FRAME":"TEME","EPHEMERIS_TYPE":"0","INCLINATION":"53.0526"},{"MEAN_ANOMALY":"297.1303","COUNTRY_CODE":"US","MEAN_MOTION_DDOT":"0.0000000000000","BSTAR":"0.00002402500000","DECAY_DATE":null,"REV_AT_EPOCH":"8239","RA_OF_ASC_NODE":"182.4404","EPHEMERIS_TYPE":"0","INCLINATION":"53.0531","REF_FRAME":"TEME","MEAN_MOTION_DOT":"0.00000076","ECCENTRICITY":"0.00016520","LAUNCH_DATE":"2021-02-04","EPOCH":"2022-08-03T05:35:41.167104","ARG_OF_PERICENTER":"62.9854","RCS_SIZE":"LARGE","TLE_LINE2":"2 47595  53.0531 182.4404 0001652  62.9854 297.1303 15.06395838 82395","PERIAPSIS":"546.082","CENTER_NAME":"EARTH","OBJECT_NAME":"STARLINK-2000","CLASSIFICATION_TYPE":"U","TLE_LINE1":"1 47595U 21009AZ  22215.23311536  .00000076  00000-0  24025-4 0  9998","OBJECT_TYPE":"PAYLOAD","GP_ID":"209493636","APOAPSIS":"548.370","TIME_SYSTEM":"UTC","MEAN_MOTION":"15.06395838","FILE":"3528364","OBJECT_ID":"2021-009AZ","ELEMENT_SET_NO":"999","MEAN_ELEMENT_THEORY":"SGP4","NORAD_CAT_ID":"47595","SITE":"AFETR","SEMIMAJOR_AXIS":"6925.361","PERIOD":"95.592"},{"COUNTRY_CODE":"US","MEAN_ANOMALY":"290.3183","RA_OF_ASC_NODE":"180.6408","REV_AT_EPOCH":"8305","MEAN_MOTION_DDOT":"0.0000000000000","DECAY_DATE":null,"BSTAR":"-0.00005592700000","ECCENTRICITY":"0.00018970","REF_FRAME":"TEME","MEAN_MOTION_DOT":"-0.00001114","EPHEMERIS_TYPE":"0","INCLINATION":"53.0539","ARG_OF_PERICENTER":"69.8010","EPOCH":"2022-08-03T15:14:13.691616","LAUNCH_DATE":"2021-02-04","OBJECT_NAME":"STARLINK-2001","TLE_LINE2":"2 47596  53.0539 180.6408 0001897  69.8010 290.3183 15.06393822 83055","PERIAPSIS":"545.919","CENTER_NAME":"EARTH","RCS_SIZE":"LARGE","GP_ID":"209500469","OBJECT_TYPE":"PAYLOAD","CLASSIFICATION_TYPE":"U","TLE_LINE1":"1 47596U 21009BA  22215.63488069 -.00001114  00000-0 -55927-4 0  9990","SITE":"AFETR","NORAD_CAT_ID":"47596","MEAN_ELEMENT_THEORY":"SGP4","FILE":"3528524","OBJECT_ID":"2021-009BA","ELEMENT_SET_NO":"999","APOAPSIS":"548.546","TIME_SYSTEM":"UTC","MEAN_MOTION":"15.06393822","SEMIMAJOR_AXIS":"6925.367","PERIOD":"95.593"}];
